{
  "type": "FeatureCollection",
  "name": "Mali_Hydrography_Network",
  "features": [
    {
      "type": "Feature",
      "properties": {
        "name": "Fleuve Niger (Chenal Principal)",
        "type": "main_river",
        "basin": "Niger",
        "rank": 1,
        "color": "#1D4ED8",
        "weight": 4,
        "opacity": 0.85
      },
      "geometry": {
        "type": "LineString",
        "coordinates": [
          [-8.4500, 11.9500],
          [-8.3200, 12.1500],
          [-8.1500, 12.4000],
          [-8.0029, 12.6392],
          [-7.8200, 12.7500],
          [-7.5599, 12.8627],
          [-7.1500, 13.0500],
          [-6.6500, 13.2500],
          [-6.2625, 13.4317],
          [-6.0800, 13.7000],
          [-5.7500, 13.9500],
          [-5.3000, 14.1500],
          [-4.7500, 14.3000],
          [-4.1856, 14.4958],
          [-4.1200, 14.9000],
          [-4.0500, 15.3000],
          [-3.9500, 15.7000],
          [-3.6500, 15.9500],
          [-3.3936, 16.2714],
          [-3.1000, 16.5000],
          [-2.9900, 16.7200],
          [-2.5000, 16.8500],
          [-2.0000, 16.8800],
          [-1.5000, 16.8500],
          [-1.0000, 16.7000],
          [-0.5000, 16.4500],
          [-0.0447, 16.2717],
          [0.2000, 15.9500],
          [0.5000, 15.6500],
          [0.7200, 15.2800],
          [0.8500, 15.0000]
        ]
      }
    },
    {
      "type": "Feature",
      "properties": {
        "name": "Rivière Bani",
        "type": "main_river",
        "basin": "Bani",
        "rank": 2,
        "color": "#2563EB",
        "weight": 3.5,
        "opacity": 0.8
      },
      "geometry": {
        "type": "LineString",
        "coordinates": [
          [-6.4500, 11.5000],
          [-6.2000, 12.1000],
          [-5.9000, 12.6500],
          [-5.9000, 13.2100],
          [-5.5500, 13.5000],
          [-4.9000, 13.8500],
          [-4.4500, 14.1500],
          [-4.1856, 14.4958]
        ]
      }
    },
    {
      "type": "Feature",
      "properties": {
        "name": "Fleuve Sénégal",
        "type": "main_river",
        "basin": "Sénégal",
        "rank": 1,
        "color": "#1D4ED8",
        "weight": 3.5,
        "opacity": 0.85
      },
      "geometry": {
        "type": "LineString",
        "coordinates": [
          [-10.8300, 13.8000],
          [-11.1000, 14.1500],
          [-11.4445, 14.4469],
          [-11.8500, 14.7500],
          [-12.2000, 14.9500],
          [-12.2500, 15.2500]
        ]
      }
    },
    {
      "type": "Feature",
      "properties": {
        "name": "Rivière Bafing (Haut Sénégal)",
        "type": "tributary",
        "basin": "Sénégal",
        "rank": 3,
        "color": "#38BDF8",
        "weight": 2.5,
        "opacity": 0.75
      },
      "geometry": {
        "type": "LineString",
        "coordinates": [
          [-10.3000, 12.8000],
          [-10.4500, 13.1500],
          [-10.6500, 13.5000],
          [-10.8300, 13.8000]
        ]
      }
    },
    {
      "type": "Feature",
      "properties": {
        "name": "Rivière Bakoye",
        "type": "tributary",
        "basin": "Sénégal",
        "rank": 3,
        "color": "#38BDF8",
        "weight": 2.5,
        "opacity": 0.75
      },
      "geometry": {
        "type": "LineString",
        "coordinates": [
          [-9.4000, 13.0500],
          [-9.9000, 13.4000],
          [-10.4000, 13.6500],
          [-10.8300, 13.8000]
        ]
      }
    },
    {
      "type": "Feature",
      "properties": {
        "name": "Rivière Sankarani",
        "type": "tributary",
        "basin": "Niger",
        "rank": 3,
        "color": "#38BDF8",
        "weight": 2.5,
        "opacity": 0.75
      },
      "geometry": {
        "type": "LineString",
        "coordinates": [
          [-8.2500, 11.2000],
          [-8.1500, 11.6500],
          [-8.1500, 12.4000]
        ]
      }
    },
    {
      "type": "Feature",
      "properties": {
        "name": "Delta Intérieur du Niger (Bras & Marigots)",
        "type": "wetland",
        "basin": "Niger",
        "rank": 2,
        "color": "#0284C7",
        "weight": 2,
        "dashArray": "4, 4",
        "opacity": 0.7
      },
      "geometry": {
        "type": "MultiLineString",
        "coordinates": [
          [[-4.5000, 14.5000], [-4.4000, 15.1000], [-4.1500, 15.6000]],
          [[-4.1000, 14.7000], [-3.8000, 15.2500], [-3.7000, 15.8000]],
          [[-4.3000, 15.0000], [-4.0000, 15.4500], [-3.5000, 16.0000]]
        ]
      }
    },
    {
      "type": "Feature",
      "properties": {
        "name": "Lac Débo (Delta Intérieur)",
        "type": "lake",
        "basin": "Niger",
        "rank": 2,
        "color": "#0369A1",
        "fillColor": "#38BDF8",
        "fillOpacity": 0.45,
        "weight": 1.5
      },
      "geometry": {
        "type": "Polygon",
        "coordinates": [
          [
            [-4.2500, 15.2000],
            [-4.0500, 15.2200],
            [-3.9500, 15.3500],
            [-4.0000, 15.4800],
            [-4.1800, 15.4500],
            [-4.3000, 15.3200],
            [-4.2500, 15.2000]
          ]
        ]
      }
    },
    {
      "type": "Feature",
      "properties": {
        "name": "Lac Faguibine",
        "type": "lake",
        "basin": "Niger",
        "rank": 2,
        "color": "#0369A1",
        "fillColor": "#38BDF8",
        "fillOpacity": 0.4,
        "weight": 1.5
      },
      "geometry": {
        "type": "Polygon",
        "coordinates": [
          [
            [-4.1000, 16.6500],
            [-3.7000, 16.7500],
            [-3.5000, 16.8500],
            [-3.6500, 16.9200],
            [-4.0500, 16.8000],
            [-4.1000, 16.6500]
          ]
        ]
      }
    },
    {
      "type": "Feature",
      "properties": {
        "name": "Lac Sélingué (Retenue)",
        "type": "lake",
        "basin": "Niger",
        "rank": 2,
        "color": "#0369A1",
        "fillColor": "#38BDF8",
        "fillOpacity": 0.5,
        "weight": 1.5
      },
      "geometry": {
        "type": "Polygon",
        "coordinates": [
          [
            [-8.2800, 11.5500],
            [-8.1200, 11.6000],
            [-8.0800, 11.7500],
            [-8.1800, 11.8500],
            [-8.3200, 11.7000],
            [-8.2800, 11.5500]
          ]
        ]
      }
    },
    {
      "type": "Feature",
      "properties": {
        "name": "Lac Manantali (Retenue Bafing)",
        "type": "lake",
        "basin": "Sénégal",
        "rank": 2,
        "color": "#0369A1",
        "fillColor": "#38BDF8",
        "fillOpacity": 0.5,
        "weight": 1.5
      },
      "geometry": {
        "type": "Polygon",
        "coordinates": [
          [
            [-10.5000, 13.1000],
            [-10.3500, 13.1800],
            [-10.3200, 13.3000],
            [-10.4500, 13.3500],
            [-10.5800, 13.2200],
            [-10.5000, 13.1000]
          ]
        ]
      }
    }
  ]
}
